OBJECT_NAME,OBJECT_ID,EPOCH,MEAN_MOTION,ECCENTRICITY,INCLINATION,RA_OF_ASC_NODE,ARG_OF_PERICENTER,MEAN_ANOMALY,EPHEMERIS_TYPE,CLASSIFICATION_TYPE,NORAD_CAT_ID,ELEMENT_SET_NO,REV_AT_EPOCH,BSTAR,MEAN_MOTION_DOT,MEAN_MOTION_DDOT
ONEWEB-0336,2021-083S,2026-07-08T21:26:03.253344,13.13468166,.00018571,87.8967,315.9078,90.0583,270.0759,0,U,49202,999,23376,.35811243E-3,.144E-5,0
ONEWEB-0337,2021-083T,2026-07-08T21:40:29.779680,13.13475679,.00023325,87.8990,315.9070,95.3377,264.8019,0,U,49203,999,23376,-.36940535E-2,-.1336E-4,0
ONEWEB-0338,2021-083U,2026-07-08T18:47:56.657760,13.20771177,.00020181,87.9170,270.1443,106.3789,253.7566,0,U,49204,999,23966,.90833829E-4,.5E-6,0
ONEWEB-0339,2021-083V,2026-07-08T21:52:52.186368,13.13468708,.00020655,87.8977,315.9016,108.3128,251.8226,0,U,49205,999,23374,-.82522113E-3,-.289E-5,0
ONEWEB-0340,2021-083W,2026-07-08T21:50:30.781536,13.18687521,.00018722,87.9184,331.1367,97.3474,262.7871,0,U,49206,999,23283,.3125352E-3,.136E-5,0
ONEWEB-0341,2021-083X,2026-07-08T22:00:13.258368,13.18686885,.0002299,87.9177,331.1371,95.6566,264.4829,0,U,49207,999,23285,-.53946255E-4,-.8E-7,0
ONEWEB-0342,2021-083Y,2026-07-08T18:57:39.817152,13.20772408,.00021019,87.9190,270.1323,102.4325,257.7044,0,U,49208,999,23963,.19708568E-3,.93E-6,0
ONEWEB-0343,2021-083Z,2026-07-08T22:12:22.025952,13.18687301,.00020698,87.9186,331.1329,105.5132,254.6228,0,U,49209,999,23290,.532508E-5,.15E-6,0
ONEWEB-0344,2021-083AA,2026-07-08T21:45:33.561216,13.13468548,.00022153,87.8965,315.9165,93.1964,266.9419,0,U,49210,999,23374,-.49600765E-3,-.168E-5,0
ONEWEB-0345,2021-083AB,2026-07-08T21:33:22.469472,13.13468951,.00022199,87.8982,315.9015,97.8615,262.2766,0,U,49211,999,23375,.77777841E-4,.41E-6,0
ONEWEB-0346,2021-083AC,2026-07-08T22:07:30.554688,13.18687105,.00017186,87.9182,331.1332,76.0609,284.0714,0,U,49212,999,23284,-.12275592E-4,.8E-7,0
ONEWEB-0348,2021-083AD,2026-07-08T15:04:56.552448,13.20772749,.00022727,87.9197,270.1699,84.7172,275.4221,0,U,49213,999,23964,.27103357E-3,.123E-5,0
ONEWEB-0350,2021-083AE,2026-07-08T22:00:20.628288,13.13422861,.00014144,87.8977,315.9031,126.3037,233.8223,0,U,49214,999,23378,-.80061101E-3,-.279E-5,0
ONEWEB-0351,2021-083AF,2026-07-08T18:33:12.489408,13.20770475,.0002684,87.9209,270.1361,107.3759,252.7668,0,U,49215,999,23962,-.60993466E-4,-.12E-6,0
ONEWEB-0352,2021-083AG,2026-07-08T21:18:45.114624,13.13468134,.00023065,87.8990,315.9109,100.7078,259.4311,0,U,49216,999,23387,.8453795E-3,.321E-5,0
ONEWEB-0354,2021-083AH,2026-07-08T17:23:06.685152,13.20770851,.0002318,87.9198,270.1466,89.0709,271.0690,0,U,49217,999,23965,-.75095341E-4,-.18E-6,0
ONEWEB-0355,2021-083AJ,2026-07-08T20:11:34.698048,13.13296322,.00021119,87.8966,315.9239,100.9390,259.1977,0,U,49218,999,23374,-.96706338E-3,-.339E-5,0
ONEWEB-0357,2021-083AK,2026-07-08T17:18:14.429376,13.20771140,.00021702,87.9191,270.1416,103.4073,256.7303,0,U,49219,999,23965,-.42642864E-3,-.16E-5,0
ONEWEB-0332,2021-090A,2026-07-08T18:14:21.284448,13.14502736,.00019473,87.8968,285.4110,106.4800,253.6544,0,U,49279,999,23041,-.64383177E-3,-.226E-5,0
ONEWEB-0347,2021-090B,2026-07-08T18:52:47.340192,13.20769698,.00019069,87.9183,270.1372,105.0672,255.0672,0,U,49280,999,23389,.22391135E-3,.104E-5,0
ONEWEB-0349,2021-090C,2026-07-08T17:49:45.270048,13.20773558,.00021226,87.9188,270.1468,101.1131,259.0241,0,U,49281,999,23267,-.40635263E-4,-.4E-7,0
ONEWEB-0353,2021-090D,2026-07-08T19:52:32.818368,13.14502022,.00018937,87.8973,285.3932,106.9835,253.1502,0,U,49282,999,23042,-.68671175E-3,-.242E-5,0
ONEWEB-0356,2021-090E,2026-07-08T17:47:20.586336,13.20769834,.00013592,87.9188,270.1403,87.2041,272.9247,0,U,49283,999,23267,.5934584E-5,.15E-6,0
ONEWEB-0358,2021-090F,2026-07-08T18:39:16.841664,13.20763979,.00020433,87.9153,270.1419,83.2837,276.8528,0,U,49284,999,23340,-.44116071E-2,-.178E-4,0
ONEWEB-0359,2021-090G,2026-07-08T18:26:07.218240,13.20770070,.00021648,87.9187,270.1347,91.6889,268.4493,0,U,49285,999,23338,-.54406232E-4,-.9E-7,0
ONEWEB-0360,2021-090H,2026-07-08T18:11:36.552480,13.20770742,.00021785,87.9190,270.1426,99.9887,260.1492,0,U,49286,999,23269,-.14630911E-3,-.46E-6,0
ONEWEB-0361,2021-090J,2026-07-08T17:44:55.669344,13.20772043,.00020531,87.9192,270.1447,94.8613,265.2755,0,U,49287,999,23314,-.80985917E-4,-.2E-6,0
ONEWEB-0362,2021-090K,2026-07-08T20:39:36.220032,13.19725947,.0002319,87.9190,300.6598,107.6700,252.4686,0,U,49288,999,22977,.12280661E-3,.62E-6,0
ONEWEB-0363,2021-090L,2026-07-08T18:06:45.177984,13.20771981,.00017767,87.9189,270.1422,92.2793,267.8544,0,U,49289,999,23315,-.23846973E-4,.3E-7,0
ONEWEB-0364,2021-090M,2026-07-08T17:13:23.789280,13.20770036,.00020827,87.9190,270.1565,99.8737,260.2631,0,U,49290,999,23428,.10075647E-3,.54E-6,0
