ONEWEB-0336             
1 49202U 21083S   26189.89309321  .00000144  00000+0  35811-3 0  9991
2 49202  87.8967 315.9078 0001857  90.0583 270.0759 13.13468166233763
ONEWEB-0337             
1 49203U 21083T   26189.90312245 -.00001336  00000+0 -36941-2 0  9993
2 49203  87.8990 315.9070 0002332  95.3377 264.8019 13.13475679233767
ONEWEB-0338             
1 49204U 21083U   26189.78329465  .00000050  00000+0  90834-4 0  9995
2 49204  87.9170 270.1443 0002018 106.3789 253.7566 13.20771177239665
ONEWEB-0339             
1 49205U 21083V   26189.91171512 -.00000289  00000+0 -82522-3 0  9999
2 49205  87.8977 315.9016 0002065 108.3128 251.8226 13.13468708233745
ONEWEB-0340             
1 49206U 21083W   26189.91007849  .00000136  00000+0  31254-3 0  9996
2 49206  87.9184 331.1367 0001872  97.3474 262.7871 13.18687521232839
ONEWEB-0341             
1 49207U 21083X   26189.91682012 -.00000008  00000+0 -53946-4 0  9991
2 49207  87.9177 331.1371 0002299  95.6566 264.4829 13.18686885232850
ONEWEB-0342             
1 49208U 21083Y   26189.79004418  .00000093  00000+0  19709-3 0  9996
2 49208  87.9190 270.1323 0002101 102.4325 257.7044 13.20772408239634
ONEWEB-0343             
1 49209U 21083Z   26189.92525493  .00000015  00000+0  53251-5 0  9999
2 49209  87.9186 331.1329 0002069 105.5132 254.6228 13.18687301232904
ONEWEB-0344             
1 49210U 21083AA  26189.90663844 -.00000168  00000+0 -49601-3 0  9995
2 49210  87.8965 315.9165 0002215  93.1964 266.9419 13.13468548233742
ONEWEB-0345             
1 49211U 21083AB  26189.89817673  .00000041  00000+0  77778-4 0  9990
2 49211  87.8982 315.9015 0002219  97.8615 262.2766 13.13468951233757
ONEWEB-0346             
1 49212U 21083AC  26189.92188142  .00000008  00000+0 -12276-4 0  9993
2 49212  87.9182 331.1332 0001718  76.0609 284.0714 13.18687105232841
ONEWEB-0348             
1 49213U 21083AD  26189.62843232  .00000123  00000+0  27103-3 0  9990
2 49213  87.9197 270.1699 0002272  84.7172 275.4221 13.20772749239647
ONEWEB-0350             
1 49214U 21083AE  26189.91690542 -.00000279  00000+0 -80061-3 0  9993
2 49214  87.8977 315.9031 0001414 126.3037 233.8223 13.13422861233789
ONEWEB-0351             
1 49215U 21083AF  26189.77306122 -.00000012  00000+0 -60993-4 0  9994
2 49215  87.9209 270.1361 0002684 107.3759 252.7668 13.20770475239624
ONEWEB-0352             
1 49216U 21083AG  26189.88802216  .00000321  00000+0  84538-3 0  9993
2 49216  87.8990 315.9109 0002306 100.7078 259.4311 13.13468134233879
ONEWEB-0354             
1 49217U 21083AH  26189.72438293 -.00000018  00000+0 -75095-4 0  9991
2 49217  87.9198 270.1466 0002318  89.0709 271.0690 13.20770851239654
ONEWEB-0355             
1 49218U 21083AJ  26189.84137382 -.00000339  00000+0 -96706-3 0  9997
2 49218  87.8966 315.9239 0002111 100.9390 259.1977 13.13296322233740
ONEWEB-0357             
1 49219U 21083AK  26189.72100034 -.00000160  00000+0 -42643-3 0  9992
2 49219  87.9191 270.1416 0002170 103.4073 256.7303 13.20771140239658
ONEWEB-0332             
1 49279U 21090A   26189.75996857 -.00000226  00000+0 -64383-3 0  9993
2 49279  87.8968 285.4110 0001947 106.4800 253.6544 13.14502736230411
ONEWEB-0347             
1 49280U 21090B   26189.78665903  .00000104  00000+0  22391-3 0  9999
2 49280  87.9183 270.1372 0001906 105.0672 255.0672 13.20769698233893
ONEWEB-0349             
1 49281U 21090C   26189.74288507 -.00000004  00000+0 -40635-4 0  9990
2 49281  87.9188 270.1468 0002122 101.1131 259.0241 13.20773558232674
ONEWEB-0353             
1 49282U 21090D   26189.82815762 -.00000242  00000+0 -68671-3 0  9992
2 49282  87.8973 285.3932 0001893 106.9835 253.1502 13.14502022230423
ONEWEB-0356             
1 49283U 21090E   26189.74121049  .00000015  00000+0  59346-5 0  9999
2 49283  87.9188 270.1403 0001359  87.2041 272.9247 13.20769834232672
ONEWEB-0358             
1 49284U 21090F   26189.77727826 -.00001780  00000+0 -44116-2 0  9996
2 49284  87.9153 270.1419 0002043  83.2837 276.8528 13.20763979233403
ONEWEB-0359             
1 49285U 21090G   26189.76813910 -.00000009  00000+0 -54406-4 0  9994
2 49285  87.9187 270.1347 0002164  91.6889 268.4493 13.20770070233380
ONEWEB-0360             
1 49286U 21090H   26189.75806195 -.00000046  00000+0 -14631-3 0  9997
2 49286  87.9190 270.1426 0002178  99.9887 260.1492 13.20770742232694
ONEWEB-0361             
1 49287U 21090J   26189.73953321 -.00000020  00000+0 -80986-4 0  9999
2 49287  87.9192 270.1447 0002053  94.8613 265.2755 13.20772043233148
ONEWEB-0362             
1 49288U 21090K   26189.86083588  .00000062  00000+0  12281-3 0  9999
2 49288  87.9190 300.6598 0002319 107.6700 252.4686 13.19725947229772
ONEWEB-0363             
1 49289U 21090L   26189.75468956  .00000003  00000+0 -23847-4 0  9991
2 49289  87.9189 270.1422 0001776  92.2793 267.8544 13.20771981233156
ONEWEB-0364             
1 49290U 21090M   26189.71763645  .00000054  00000+0  10076-3 0  9996
2 49290  87.9190 270.1565 0002082  99.8737 260.2631 13.20770036234289
